NORAD_CAT_ID,OBJECT_NAME,OBJECT_TYPE,EPOCH,MEAN_MOTION,ECCENTRICITY,INCLINATION,RA_OF_ASC_NODE,ARG_OF_PERICENTER,MEAN_ANOMALY,BSTAR,MEAN_MOTION_DOT,MEAN_MOTION_DDOT,TLE_LINE0,TLE_LINE1,TLE_LINE2,SEMIMAJOR_AXIS,PERIOD,APOGEE,PERIGEE,DECAYED
51854.0,STARLINK-3541,PAYLOAD,2022-06-20 22:00:00,15.08831807,0.0001954,53.2173,354.3984,39.8721,261.2974,0.0020179,0.00031966,0.0,0 STARLINK-3541,1 51854U 22022C   22171.91667824  .00031966  00000-0  20179-2 0  9993,2 51854  53.2173 354.3984 0001954  39.8721 261.2974 15.08831807  1307,6917.905,95.438,541.122,538.419,0.0
51854.0,STARLINK-3541,PAYLOAD,2022-06-21 06:00:00,15.08844537,0.0001817,53.2174,352.9005,43.7236,269.0532,-0.00095681,-0.00015486,0.0,0 STARLINK-3541,1 51854U 22022C   22172.25001157 -.00015486  00000-0 -95681-3 0  9994,2 51854  53.2174 352.9005 0001817  43.7236 269.0532 15.08844537 18082,6917.8669999999975,95.437,540.988,538.475,0.0
51854.0,STARLINK-3541,PAYLOAD,2022-06-21 14:00:01,15.08845574,0.0001813,53.2176,351.4013,43.5227,280.8285,-0.0051766,-0.00081753,0.0,0 STARLINK-3541,1 51854U 22022C   22172.58334491 -.00081753  00000-0 -51766-2 0  9995,2 51854  53.2176 351.4013 0001813  43.5227 280.8285 15.08845574  1306,6917.863,95.437,540.9830000000002,538.474,0.0
51854.0,STARLINK-3541,PAYLOAD,2022-06-21 22:00:00,15.08829793,0.000197,53.2172,349.9094,41.8465,294.1084,0.0023146,0.00036731,0.0,0 STARLINK-3541,1 51854U 22022C   22172.91667824  .00036731  00000-0  23146-2 0  9996,2 51854  53.2172 349.9094 0001970  41.8465 294.1084 15.08829793  1302,6917.9119999999975,95.438,541.139,538.414,0.0
51854.0,STARLINK-3541,PAYLOAD,2022-06-22 06:00:00,15.08840444,0.0001744,53.217,348.4114,44.1621,303.3993,-0.0010307,-0.00016655,0.0,0 STARLINK-3541,1 51854U 22022C   22173.25001157 -.00016655  00000-0 -10307-2 0  9995,2 51854  53.2170 348.4114 0001744  44.1621 303.3993 15.08840444 18234,6917.879,95.438,540.951,538.538,0.0
51854.0,STARLINK-3541,PAYLOAD,2022-06-22 14:00:01,15.0885033,0.0001714,53.2171,346.9154,45.1465,313.996,-0.00085471,-0.00013869,0.0,0 STARLINK-3541,1 51854U 22022C   22173.58334491 -.00013869  00000-0 -85471-3 0  9990,2 51854  53.2171 346.9154 0001714  45.1465 313.9960 15.08850330  1302,6917.849,95.437,540.9,538.528,0.0
51854.0,STARLINK-3541,PAYLOAD,2022-06-22 22:00:00,15.08834369,0.0001851,53.2167,345.4204,39.1218,331.6252,0.00057985,8.951e-05,0.0,0 STARLINK-3541,1 51854U 22022C   22173.91667824  .00008951  00000-0  57985-3 0  9999,2 51854  53.2167 345.4204 0001851  39.1218 331.6252 15.08834369 18345,6917.898,95.438,541.043,538.482,0.0
51854.0,STARLINK-3541,PAYLOAD,2022-06-23 14:00:01,15.08869801,0.0001764999999999,53.2165,342.4265,45.3832,348.5223,-0.0042129,-0.0006677,0.0,0 STARLINK-3541,1 51854U 22022C   22174.58334491 -.00066770  00000-0 -42129-2 0  9992,2 51854  53.2165 342.4265 0001765  45.3832 348.5223 15.08869801  1304,6917.7890000000025,95.436,540.875,538.433,0.0
51854.0,STARLINK-3541,PAYLOAD,2022-06-23 22:00:00,15.08802518,0.0001878,53.216,340.9314,39.1332,6.3805,0.0030996,0.00049337,0.0,0 STARLINK-3541,1 51854U 22022C   22174.91667824  .00049337  00000-0  30996-2 0  9995,2 51854  53.2160 340.9314 0001878  39.1332   6.3805 15.08802518 18493,6917.995,95.44,541.159,538.561,0.0
51854.0,STARLINK-3541,PAYLOAD,2022-06-24 14:00:01,15.08852042,0.0001792,53.216,337.9374,45.1588,23.5027,-0.0015598,-0.00025035,0.0,0 STARLINK-3541,1 51854U 22022C   22175.58334491 -.00025035  00000-0 -15598-2 0  9992,2 51854  53.2160 337.9374 0001792  45.1588  23.5027 15.08852042 18595,6917.844,95.437,540.948,538.469,0.0
51854.0,STARLINK-3541,PAYLOAD,2022-06-24 22:00:01,15.08833647,0.0001969,53.2156,336.44199999999995,40.3205,40.0061,0.00041523,6.325e-05,0.0,0 STARLINK-3541,1 51854U 22022C   22175.91668981  .00006325  00000-0  41523-3 0  9990,2 51854  53.2156 336.4420 0001969  40.3205  40.0061 15.08833647  1308,6917.9,95.438,541.127,538.403,0.0
51854.0,STARLINK-3541,PAYLOAD,2022-06-25 14:00:01,15.08840665,0.0001966,53.2159,333.4479,47.8732,55.5497,-0.0015799,-0.00025345,0.0,0 STARLINK-3541,1 51854U 22022C   22176.58334491 -.00025345  00000-0 -15799-2 0  9990,2 51854  53.2159 333.4479 0001966  47.8732  55.5497 15.08840665 18744,6917.878000000002,95.438,541.1030000000002,538.383,0.0
51854.0,STARLINK-3541,PAYLOAD,2022-06-25 22:00:00,15.08816599,0.0002093,53.2157,331.9525,42.3429,72.6733,0.0029205,0.00046469,0.0,0 STARLINK-3541,1 51854U 22022C   22176.91667824  .00046469  00000-0  29205-2 0  9991,2 51854  53.2157 331.9525 0002093  42.3429  72.6733 15.08816599  1308,6917.9519999999975,95.439,541.265,538.369,0.0
51854.0,STARLINK-3541,PAYLOAD,2022-06-26 06:00:00,15.08826117,0.0001921,53.216,330.4542,46.6609,79.9527,0.0026538,0.00042185,0.0,0 STARLINK-3541,1 51854U 22022C   22177.25001157  .00042185  00000-0  26538-2 0  9997,2 51854  53.2160 330.4542 0001921  46.6609  79.9527 15.08826117 18846,6917.9230000000025,95.438,541.117,538.4590000000002,0.0
51854.0,STARLINK-3541,PAYLOAD,2022-06-26 14:00:01,15.08878683,0.0002008,53.2166,328.9574,46.5139,91.7566,-0.0043621,-0.0006912,0.0,0 STARLINK-3541,1 51854U 22022C   22177.58335648 -.00069120  00000-0 -43621-2 0  9990,2 51854  53.2166 328.9574 0002008  46.5139  91.7566 15.08878683  1306,6917.762,95.435,541.016,538.238,0.0
51854.0,STARLINK-3541,PAYLOAD,2022-06-26 22:00:00,15.08821916,0.0002077,53.2162,327.4629,40.0539,109.7681,0.0025604,0.00040677,0.0,0 STARLINK-3541,1 51854U 22022C   22177.91667824  .00040677  00000-0  25604-2 0  9996,2 51854  53.2162 327.4629 0002077  40.0539 109.7681 15.08821916 18949,6917.936,95.439,541.238,538.364,0.0
51854.0,STARLINK-3541,PAYLOAD,2022-06-27 14:00:01,15.08842766,0.000192,53.2168,324.4692,42.4532,130.558,-0.0018271,-0.00029252,0.0,0 STARLINK-3541,1 51854U 22022C   22178.58334491 -.00029252  00000-0 -18271-2 0  9991,2 51854  53.2168 324.4692 0001920  42.4532 130.5580 15.08842766 19045,6917.871999999999,95.437,541.065,538.409,0.0
51854.0,STARLINK-3541,PAYLOAD,2022-06-27 22:00:00,15.08823418,0.0002037,53.2167,322.9735,38.4704,146.128,0.001811,0.00028639,0.0,0 STARLINK-3541,1 51854U 22022C   22178.91667824  .00028639  00000-0  18110-2 0  9995,2 51854  53.2167 322.9735 0002037  38.4704 146.1280 15.08823418  1304,6917.931,95.439,541.205,538.387,0.0
51854.0,STARLINK-3541,PAYLOAD,2022-06-28 06:00:00,15.08815024,0.0001818,53.217,321.4754,43.1454,153.0436,0.0027469,0.0004367,0.0,0 STARLINK-3541,1 51854U 22022C   22179.25001157  .00043670  00000-0  27469-2 0  9993,2 51854  53.2170 321.4754 0001818  43.1454 153.0436 15.08815024 19149,6917.956999999999,95.439,541.0790000000002,538.564,0.0
51854.0,STARLINK-3541,PAYLOAD,2022-06-28 14:00:01,15.08856889,0.0001887,53.2173,319.9803,41.6163,166.1517,-0.0041489,-0.00065747,0.0,0 STARLINK-3541,1 51854U 22022C   22179.58334491 -.00065747  00000-0 -41489-2 0  9998,2 51854  53.2173 319.9803 0001887  41.6163 166.1517 15.08856889  1303,6917.829000000002,95.436,540.999,538.388,0.0
51854.0,STARLINK-3541,PAYLOAD,2022-06-28 22:00:00,15.08816309,0.0001948,53.2169,318.4844,37.0165,182.3396,0.00082284,0.00012823,0.0,0 STARLINK-3541,1 51854U 22022C   22179.91667824  .00012823  00000-0  82284-3 0  9998,2 51854  53.2169 318.4844 0001948  37.0165 182.3396 15.08816309  1304,6917.953,95.439,541.165,538.47,0.0
51854.0,STARLINK-3541,PAYLOAD,2022-06-29 14:00:01,15.08837147,0.0001853,53.2173,315.4915,40.9895,201.5111,-0.0012939,-0.0002082,0.0,0 STARLINK-3541,1 51854U 22022C   22180.58334491 -.00020820  00000-0 -12939-2 0  9991,2 51854  53.2173 315.4915 0001853  40.9895 201.5111 15.08837147  1305,6917.889,95.438,541.036,538.472,0.0
51854.0,STARLINK-3541,PAYLOAD,2022-06-29 22:00:00,15.08835432,0.0001915,53.2168,313.9955,38.0286,216.0535,1.9619e-05,2.4e-07,0.0,0 STARLINK-3541,1 51854U 22022C   22180.91667824  .00000024  00000-0  19619-4 0  9993,2 51854  53.2168 313.9955 0001915  38.0286 216.0535 15.08835432  1303,6917.894,95.438,541.0840000000002,538.435,0.0
51854.0,STARLINK-3541,PAYLOAD,2022-06-30 06:00:00,15.08814031,0.000172,53.2169,312.4976,43.574,222.105,0.0029444,0.00046851,0.0,0 STARLINK-3541,1 51854U 22022C   22181.25001157  .00046851  00000-0  29444-2 0  9995,2 51854  53.2169 312.4976 0001720  43.5740 222.1050 15.08814031 19447,6917.96,95.439,541.015,538.635,0.0
51854.0,STARLINK-3541,PAYLOAD,2022-06-30 14:00:01,15.08847394,0.0001855,53.2169,311.0029,41.9371,235.3221,-0.0012519,-0.00020161,0.0,0 STARLINK-3541,1 51854U 22022C   22181.58334491 -.00020161  00000-0 -12519-2 0  9994,2 51854  53.2169 311.0029 0001855  41.9371 235.3221 15.08847394  1302,6917.858,95.437,541.006,538.44,0.0
51854.0,STARLINK-3541,PAYLOAD,2022-06-30 22:00:00,15.08850645,0.0001895,53.2163,309.5067,39.2208,249.6309,-0.00066724,-0.00010895,0.0,0 STARLINK-3541,1 51854U 22022C   22181.91667824 -.00010895  00000-0 -66724-3 0  9991,2 51854  53.2163 309.5067 0001895  39.2208 249.6309 15.08850645  1301,6917.848000000001,95.437,541.024,538.4019999999998,0.0
51854.0,STARLINK-3541,PAYLOAD,2022-07-01 14:00:01,15.08855543,0.0001885,53.2163,306.5141,42.8158,269.23900000000003,-0.0011759,-0.00018962,0.0,0 STARLINK-3541,1 51854U 22022C   22182.58334491 -.00018962  00000-0 -11759-2 0  9996,2 51854  53.2163 306.5141 0001885  42.8158 269.2390 15.08855543  1304,6917.833000000001,95.437,541.002,538.394,0.0
51854.0,STARLINK-3541,PAYLOAD,2022-07-01 22:00:00,15.08871526,0.0001879,53.2159,305.0177,39.0618,284.5927,-0.0028743,-0.00045782,0.0,0 STARLINK-3541,1 51854U 22022C   22182.91667824 -.00045782  00000-0 -28743-2 0  9993,2 51854  53.2159 305.0177 0001879  39.0618 284.5927 15.08871526  1309,6917.784000000002,95.436,540.9490000000002,538.349,0.0
51854.0,STARLINK-3541,PAYLOAD,2022-07-02 14:00:01,15.08838998,0.0001868,53.216,302.0252,40.1863,306.6727,-0.00094504,-0.00015297,0.0,0 STARLINK-3541,1 51854U 22022C   22183.58334491 -.00015297  00000-0 -94504-3 0  9995,2 51854  53.2160 302.0252 0001868  40.1863 306.6727 15.08838998  1305,6917.8830000000025,95.438,541.0409999999998,538.456,0.0
